[{"OBJECT_NAME":"ONEWEB-0136","OBJECT_ID":"2020-100AA","EPOCH":"2026-04-28T04:19:10.725600","MEAN_MOTION":13.12445222,"ECCENTRICITY":0.0001821,"INCLINATION":87.8995,"RA_OF_ASC_NODE":0.587,"ARG_OF_PERICENTER":70.4602,"MEAN_ANOMALY":289.6723,"EPHEMERIS_TYPE":0,"CLASSIFICATION_TYPE":"U","NORAD_CAT_ID":47282,"ELEMENT_SET_NO":999,"REV_AT_EPOCH":25810,"BSTAR":5.3858e-05,"MEAN_MOTION_DOT":3.2e-07,"MEAN_MOTION_DDOT":0.0},{"OBJECT_NAME":"ONEWEB-0137","OBJECT_ID":"2020-100AB","EPOCH":"2026-04-28T05:07:58.312704","MEAN_MOTION":13.12442592,"ECCENTRICITY":0.0001691,"INCLINATION":87.9,"RA_OF_ASC_NODE":0.5879,"ARG_OF_PERICENTER":84.1245,"MEAN_ANOMALY":276.0077,"EPHEMERIS_TYPE":0,"CLASSIFICATION_TYPE":"U","NORAD_CAT_ID":47283,"ELEMENT_SET_NO":999,"REV_AT_EPOCH":25801,"BSTAR":0.00037333,"MEAN_MOTION_DOT":1.47e-06,"MEAN_MOTION_DDOT":0.0},{"OBJECT_NAME":"ONEWEB-0138","OBJECT_ID":"2020-100AC","EPOCH":"2026-04-28T04:36:17.374464","MEAN_MOTION":13.12443958,"ECCENTRICITY":0.0001736,"INCLINATION":87.8996,"RA_OF_ASC_NODE":0.5997,"ARG_OF_PERICENTER":72.931,"MEAN_ANOMALY":287.2008,"EPHEMERIS_TYPE":0,"CLASSIFICATION_TYPE":"U","NORAD_CAT_ID":47284,"ELEMENT_SET_NO":999,"REV_AT_EPOCH":25809,"BSTAR":0.0010832,"MEAN_MOTION_DOT":4.02e-06,"MEAN_MOTION_DDOT":0.0},{"OBJECT_NAME":"ONEWEB-0139","OBJECT_ID":"2020-100AD","EPOCH":"2026-04-28T05:35:00.941856","MEAN_MOTION":13.12442266,"ECCENTRICITY":0.0001754,"INCLINATION":87.8994,"RA_OF_ASC_NODE":0.5784,"ARG_OF_PERICENTER":79.6613,"MEAN_ANOMALY":280.4713,"EPHEMERIS_TYPE":0,"CLASSIFICATION_TYPE":"U","NORAD_CAT_ID":47285,"ELEMENT_SET_NO":999,"REV_AT_EPOCH":25817,"BSTAR":-0.0011256,"MEAN_MOTION_DOT":-3.92e-06,"MEAN_MOTION_DDOT":0.0},{"OBJECT_NAME":"ONEWEB-0140","OBJECT_ID":"2020-100AE","EPOCH":"2026-04-28T04:28:56.419104","MEAN_MOTION":13.12444123,"ECCENTRICITY":0.000195,"INCLINATION":87.8997,"RA_OF_ASC_NODE":0.5774,"ARG_OF_PERICENTER":80.2063,"MEAN_ANOMALY":279.9285,"EPHEMERIS_TYPE":0,"CLASSIFICATION_TYPE":"U","NORAD_CAT_ID":47286,"ELEMENT_SET_NO":999,"REV_AT_EPOCH":25813,"BSTAR":0.00081622,"MEAN_MOTION_DOT":3.06e-06,"MEAN_MOTION_DDOT":0.0},{"OBJECT_NAME":"ONEWEB-0141","OBJECT_ID":"2020-100AF","EPOCH":"2026-04-28T05:34:36.240960","MEAN_MOTION":13.12443107,"ECCENTRICITY":0.0001556,"INCLINATION":87.8996,"RA_OF_ASC_NODE":0.5738,"ARG_OF_PERICENTER":89.6739,"MEAN_ANOMALY":270.4568,"EPHEMERIS_TYPE":0,"CLASSIFICATION_TYPE":"U","NORAD_CAT_ID":47287,"ELEMENT_SET_NO":999,"REV_AT_EPOCH":25812,"BSTAR":-0.001007,"MEAN_MOTION_DOT":-3.5e-06,"MEAN_MOTION_DDOT":0.0},{"OBJECT_NAME":"ONEWEB-0142","OBJECT_ID":"2020-100AG","EPOCH":"2026-04-28T05:17:55.698720","MEAN_MOTION":13.12442162,"ECCENTRICITY":0.0001336,"INCLINATION":87.8991,"RA_OF_ASC_NODE":0.6001,"ARG_OF_PERICENTER":79.6784,"MEAN_ANOMALY":280.4495,"EPHEMERIS_TYPE":0,"CLASSIFICATION_TYPE":"U","NORAD_CAT_ID":47288,"ELEMENT_SET_NO":999,"REV_AT_EPOCH":25811,"BSTAR":-0.00018395,"MEAN_MOTION_DOT":-5.3e-07,"MEAN_MOTION_DDOT":0.0},{"OBJECT_NAME":"ONEWEB-0143","OBJECT_ID":"2020-100AH","EPOCH":"2026-04-28T05:32:21.828480","MEAN_MOTION":13.12442588,"ECCENTRICITY":0.0001741,"INCLINATION":87.8995,"RA_OF_ASC_NODE":0.5947,"ARG_OF_PERICENTER":81.4321,"MEAN_ANOMALY":278.7005,"EPHEMERIS_TYPE":0,"CLASSIFICATION_TYPE":"U","NORAD_CAT_ID":47289,"ELEMENT_SET_NO":999,"REV_AT_EPOCH":25809,"BSTAR":-0.0010632,"MEAN_MOTION_DOT":-3.7e-06,"MEAN_MOTION_DDOT":0.0},{"OBJECT_NAME":"ONEWEB-0144","OBJECT_ID":"2020-100AJ","EPOCH":"2026-04-28T03:01:06.195360","MEAN_MOTION":13.12441738,"ECCENTRICITY":0.0001542,"INCLINATION":87.9,"RA_OF_ASC_NODE":0.5875,"ARG_OF_PERICENTER":71.1831,"MEAN_ANOMALY":288.9464,"EPHEMERIS_TYPE":0,"CLASSIFICATION_TYPE":"U","NORAD_CAT_ID":47290,"ELEMENT_SET_NO":999,"REV_AT_EPOCH":25800,"BSTAR":0.0013106,"MEAN_MOTION_DOT":4.84e-06,"MEAN_MOTION_DDOT":0.0},{"OBJECT_NAME":"ONEWEB-0145","OBJECT_ID":"2020-100AK","EPOCH":"2026-04-28T04:09:25.250688","MEAN_MOTION":13.12444273,"ECCENTRICITY":0.0001703,"INCLINATION":87.899,"RA_OF_ASC_NODE":0.6114,"ARG_OF_PERICENTER":78.9107,"MEAN_ANOMALY":281.2213,"EPHEMERIS_TYPE":0,"CLASSIFICATION_TYPE":"U","NORAD_CAT_ID":47291,"ELEMENT_SET_NO":999,"REV_AT_EPOCH":25820,"BSTAR":-0.00047127000000000003,"MEAN_MOTION_DOT":-1.57e-06,"MEAN_MOTION_DDOT":0.0},{"OBJECT_NAME":"ONEWEB-0146","OBJECT_ID":"2020-100AL","EPOCH":"2026-04-28T04:04:32.234592","MEAN_MOTION":13.12444412,"ECCENTRICITY":0.0002077,"INCLINATION":87.8994,"RA_OF_ASC_NODE":0.6001,"ARG_OF_PERICENTER":85.0285,"MEAN_ANOMALY":275.1081,"EPHEMERIS_TYPE":0,"CLASSIFICATION_TYPE":"U","NORAD_CAT_ID":47292,"ELEMENT_SET_NO":999,"REV_AT_EPOCH":25811,"BSTAR":-0.00061005,"MEAN_MOTION_DOT":-2.07e-06,"MEAN_MOTION_DDOT":0.0},{"OBJECT_NAME":"ONEWEB-0147","OBJECT_ID":"2020-100AM","EPOCH":"2026-04-28T05:05:31.805952","MEAN_MOTION":13.12442007,"ECCENTRICITY":0.0001868,"INCLINATION":87.8997,"RA_OF_ASC_NODE":0.5727,"ARG_OF_PERICENTER":76.6017,"MEAN_ANOMALY":283.532,"EPHEMERIS_TYPE":0,"CLASSIFICATION_TYPE":"U","NORAD_CAT_ID":47293,"ELEMENT_SET_NO":999,"REV_AT_EPOCH":25801,"BSTAR":0.00043386000000000005,"MEAN_MOTION_DOT":1.69e-06,"MEAN_MOTION_DDOT":0.0},{"OBJECT_NAME":"ONEWEB-0115","OBJECT_ID":"2021-025A","EPOCH":"2026-04-28T06:42:20.075328","MEAN_MOTION":13.13469222,"ECCENTRICITY":0.0001799,"INCLINATION":87.8969,"RA_OF_ASC_NODE":330.1639,"ARG_OF_PERICENTER":85.711,"MEAN_ANOMALY":274.4225,"EPHEMERIS_TYPE":0,"CLASSIFICATION_TYPE":"U","NORAD_CAT_ID":48042,"ELEMENT_SET_NO":999,"REV_AT_EPOCH":24704,"BSTAR":0.00060408,"MEAN_MOTION_DOT":2.33e-06,"MEAN_MOTION_DDOT":0.0},{"OBJECT_NAME":"ONEWEB-0152","OBJECT_ID":"2021-025B","EPOCH":"2026-04-28T07:01:49.818144","MEAN_MOTION":13.13470164,"ECCENTRICITY":0.0001864,"INCLINATION":87.8961,"RA_OF_ASC_NODE":330.1593,"ARG_OF_PERICENTER":86.0649,"MEAN_ANOMALY":274.0693,"EPHEMERIS_TYPE":0,"CLASSIFICATION_TYPE":"U","NORAD_CAT_ID":48043,"ELEMENT_SET_NO":999,"REV_AT_EPOCH":24700,"BSTAR":-5.966200000000001e-06,"MEAN_MOTION_DOT":1.1e-07,"MEAN_MOTION_DDOT":0.0},{"OBJECT_NAME":"ONEWEB-0153","OBJECT_ID":"2021-025C","EPOCH":"2026-04-28T02:50:45.014784","MEAN_MOTION":13.13470051,"ECCENTRICITY":0.000165,"INCLINATION":87.896,"RA_OF_ASC_NODE":330.1985,"ARG_OF_PERICENTER":85.1049,"MEAN_ANOMALY":275.0269,"EPHEMERIS_TYPE":0,"CLASSIFICATION_TYPE":"U","NORAD_CAT_ID":48044,"ELEMENT_SET_NO":999,"REV_AT_EPOCH":24697,"BSTAR":0.00096778,"MEAN_MOTION_DOT":3.66e-06,"MEAN_MOTION_DDOT":0.0},{"OBJECT_NAME":"ONEWEB-0154","OBJECT_ID":"2021-025D","EPOCH":"2026-04-28T02:45:51.597792","MEAN_MOTION":13.13469196,"ECCENTRICITY":0.0001802,"INCLINATION":87.8959,"RA_OF_ASC_NODE":330.1967,"ARG_OF_PERICENTER":83.2112,"MEAN_ANOMALY":276.9222,"EPHEMERIS_TYPE":0,"CLASSIFICATION_TYPE":"U","NORAD_CAT_ID":48045,"ELEMENT_SET_NO":999,"REV_AT_EPOCH":24693,"BSTAR":0.00090906,"MEAN_MOTION_DOT":3.45e-06,"MEAN_MOTION_DDOT":0.0}]