ONEWEB-0136             
1 47282U 20100AA  26118.17998525  .00000032  00000+0  53858-4 0  9997
2 47282  87.8995   0.5870 0001821  70.4602 289.6723 13.12445222258101
ONEWEB-0137             
1 47283U 20100AB  26118.21386936  .00000147  00000+0  37333-3 0  9996
2 47283  87.9000   0.5879 0001691  84.1245 276.0077 13.12442592258018
ONEWEB-0138             
1 47284U 20100AC  26118.19186776  .00000402  00000+0  10832-2 0  9992
2 47284  87.8996   0.5997 0001736  72.9310 287.2008 13.12443958258094
ONEWEB-0139             
1 47285U 20100AD  26118.23264979 -.00000392  00000+0 -11256-2 0  9991
2 47285  87.8994   0.5784 0001754  79.6613 280.4713 13.12442266258175
ONEWEB-0140             
1 47286U 20100AE  26118.18676411  .00000306  00000+0  81622-3 0  9992
2 47286  87.8997   0.5774 0001950  80.2063 279.9285 13.12444123258130
ONEWEB-0141             
1 47287U 20100AF  26118.23236390 -.00000350  00000+0 -10070-2 0  9996
2 47287  87.8996   0.5738 0001556  89.6739 270.4568 13.12443107258125
ONEWEB-0142             
1 47288U 20100AG  26118.22078355 -.00000053  00000+0 -18395-3 0  9990
2 47288  87.8991   0.6001 0001336  79.6784 280.4495 13.12442162258119
ONEWEB-0143             
1 47289U 20100AH  26118.23080820 -.00000370  00000+0 -10632-2 0  9999
2 47289  87.8995   0.5947 0001741  81.4321 278.7005 13.12442588258096
ONEWEB-0144             
1 47290U 20100AJ  26118.12576615  .00000484  00000+0  13106-2 0  9994
2 47290  87.9000   0.5875 0001542  71.1831 288.9464 13.12441738258006
ONEWEB-0145             
1 47291U 20100AK  26118.17320892 -.00000157  00000+0 -47127-3 0  9994
2 47291  87.8990   0.6114 0001703  78.9107 281.2213 13.12444273258208
ONEWEB-0146             
1 47292U 20100AL  26118.16981753 -.00000207  00000+0 -61005-3 0  9990
2 47292  87.8994   0.6001 0002077  85.0285 275.1081 13.12444412258119
ONEWEB-0147             
1 47293U 20100AM  26118.21217368  .00000169  00000+0  43386-3 0  9998
2 47293  87.8997   0.5727 0001868  76.6017 283.5320 13.12442007258019
ONEWEB-0115             
1 48042U 21025A   26118.27939902  .00000233  00000+0  60408-3 0  9995
2 48042  87.8969 330.1639 0001799  85.7110 274.4225 13.13469222247046
ONEWEB-0152             
1 48043U 21025B   26118.29293771  .00000011  00000+0 -59662-5 0  9992
2 48043  87.8961 330.1593 0001864  86.0649 274.0693 13.13470164247000
ONEWEB-0153             
1 48044U 21025C   26118.11857656  .00000366  00000+0  96778-3 0  9991
2 48044  87.8960 330.1985 0001650  85.1049 275.0269 13.13470051246972
ONEWEB-0154             
1 48045U 21025D   26118.11518053  .00000345  00000+0  90906-3 0  9991
2 48045  87.8959 330.1967 0001802  83.2112 276.9222 13.13469196246933
